[{"OBJECT_NAME":"OPS 6582 (TRANSIT 5B-5)","OBJECT_ID":"1964-083D","EPOCH":"2026-04-27T12:01:07.563072","MEAN_MOTION":13.57007825,"ECCENTRICITY":0.0043414,"INCLINATION":90.0796,"RA_OF_ASC_NODE":202.6263,"ARG_OF_PERICENTER":67.5145,"MEAN_ANOMALY":303.9551,"EPHEMERIS_TYPE":0,"CLASSIFICATION_TYPE":"U","NORAD_CAT_ID":965,"ELEMENT_SET_NO":999,"REV_AT_EPOCH":3674,"BSTAR":5.5424e-5,"MEAN_MOTION_DOT":4.9e-7,"MEAN_MOTION_DDOT":0},{"OBJECT_NAME":"LES-1","OBJECT_ID":"1965-008C","EPOCH":"2026-04-27T07:03:37.464768","MEAN_MOTION":9.88355197,"ECCENTRICITY":0.0015341,"INCLINATION":32.1385,"RA_OF_ASC_NODE":165.2741,"ARG_OF_PERICENTER":86.8365,"MEAN_ANOMALY":273.3887,"EPHEMERIS_TYPE":0,"CLASSIFICATION_TYPE":"U","NORAD_CAT_ID":1002,"ELEMENT_SET_NO":999,"REV_AT_EPOCH":21115,"BSTAR":0.00040675,"MEAN_MOTION_DOT":1.1e-7,"MEAN_MOTION_DDOT":0},{"OBJECT_NAME":"SOLRAD 7B","OBJECT_ID":"1965-016D","EPOCH":"2026-04-27T08:15:58.038336","MEAN_MOTION":13.94969531,"ECCENTRICITY":0.0021664,"INCLINATION":70.0805,"RA_OF_ASC_NODE":344.3579,"ARG_OF_PERICENTER":194.6655,"MEAN_ANOMALY":165.3825,"EPHEMERIS_TYPE":0,"CLASSIFICATION_TYPE":"U","NORAD_CAT_ID":1291,"ELEMENT_SET_NO":999,"REV_AT_EPOCH":10961,"BSTAR":6.8534e-5,"MEAN_MOTION_DOT":4.0e-7,"MEAN_MOTION_DDOT":0},{"OBJECT_NAME":"SECOR 4 (EGRS 4)","OBJECT_ID":"1965-027B","EPOCH":"2026-04-27T12:04:28.176096","MEAN_MOTION":12.92666914,"ECCENTRICITY":0.0030441,"INCLINATION":90.255,"RA_OF_ASC_NODE":14.4222,"ARG_OF_PERICENTER":335.8289,"MEAN_ANOMALY":196.9044,"EPHEMERIS_TYPE":0,"CLASSIFICATION_TYPE":"U","NORAD_CAT_ID":1315,"ELEMENT_SET_NO":999,"REV_AT_EPOCH":88037,"BSTAR":0.0002456,"MEAN_MOTION_DOT":7.4e-7,"MEAN_MOTION_DDOT":0},{"OBJECT_NAME":"TIROS 10","OBJECT_ID":"1965-051A","EPOCH":"2026-04-27T07:21:44.354304","MEAN_MOTION":14.4160961,"ECCENTRICITY":0.0054384,"INCLINATION":98.4964,"RA_OF_ASC_NODE":236.8791,"ARG_OF_PERICENTER":230.9776,"MEAN_ANOMALY":128.6564,"EPHEMERIS_TYPE":0,"CLASSIFICATION_TYPE":"U","NORAD_CAT_ID":1430,"ELEMENT_SET_NO":999,"REV_AT_EPOCH":18858,"BSTAR":7.2362e-5,"MEAN_MOTION_DOT":1.94e-6,"MEAN_MOTION_DDOT":0},{"OBJECT_NAME":"ALOUETTE 2","OBJECT_ID":"1965-098A","EPOCH":"2026-04-27T00:22:37.603200","MEAN_MOTION":12.28312971,"ECCENTRICITY":0.1330563,"INCLINATION":79.7988,"RA_OF_ASC_NODE":320.2144,"ARG_OF_PERICENTER":336.3271,"MEAN_ANOMALY":18.1601,"EPHEMERIS_TYPE":0,"CLASSIFICATION_TYPE":"U","NORAD_CAT_ID":1804,"ELEMENT_SET_NO":999,"REV_AT_EPOCH":67299,"BSTAR":0.00010481097,"MEAN_MOTION_DOT":3.2e-6,"MEAN_MOTION_DDOT":0},{"OBJECT_NAME":"OV3-3","OBJECT_ID":"1966-070A","EPOCH":"2026-04-27T11:12:32.664672","MEAN_MOTION":13.4436259,"ECCENTRICITY":0.1014928,"INCLINATION":81.3314,"RA_OF_ASC_NODE":15.7326,"ARG_OF_PERICENTER":289.2529,"MEAN_ANOMALY":60.1614,"EPHEMERIS_TYPE":0,"CLASSIFICATION_TYPE":"U","NORAD_CAT_ID":2389,"ELEMENT_SET_NO":999,"REV_AT_EPOCH":59215,"BSTAR":0.00041522,"MEAN_MOTION_DOT":9.115e-5,"MEAN_MOTION_DDOT":0},{"OBJECT_NAME":"SECOR 7 (EGRS 7)","OBJECT_ID":"1966-077B","EPOCH":"2026-04-26T21:32:31.583328","MEAN_MOTION":8.59615519,"ECCENTRICITY":0.0011851,"INCLINATION":90.3284,"RA_OF_ASC_NODE":276.8425,"ARG_OF_PERICENTER":107.8184,"MEAN_ANOMALY":252.3961,"EPHEMERIS_TYPE":0,"CLASSIFICATION_TYPE":"U","NORAD_CAT_ID":2411,"ELEMENT_SET_NO":999,"REV_AT_EPOCH":87297,"BSTAR":0.0097228,"MEAN_MOTION_DOT":2.1e-7,"MEAN_MOTION_DDOT":0},{"OBJECT_NAME":"ERS 15","OBJECT_ID":"1966-077C","EPOCH":"2026-04-26T09:35:07.573344","MEAN_MOTION":8.59079422,"ECCENTRICITY":0.00073712,"INCLINATION":90.3282,"RA_OF_ASC_NODE":276.6294,"ARG_OF_PERICENTER":116.466,"MEAN_ANOMALY":243.6948,"EPHEMERIS_TYPE":0,"CLASSIFICATION_TYPE":"U","NORAD_CAT_ID":2412,"ELEMENT_SET_NO":999,"REV_AT_EPOCH":38601,"BSTAR":0,"MEAN_MOTION_DOT":2.0e-8,"MEAN_MOTION_DDOT":0},{"OBJECT_NAME":"ISIS 1","OBJECT_ID":"1969-009A","EPOCH":"2026-04-27T03:03:44.443872","MEAN_MOTION":11.30424602,"ECCENTRICITY":0.1706954,"INCLINATION":88.4443,"RA_OF_ASC_NODE":150.0111,"ARG_OF_PERICENTER":351.4221,"MEAN_ANOMALY":6.0735,"EPHEMERIS_TYPE":0,"CLASSIFICATION_TYPE":"U","NORAD_CAT_ID":3669,"ELEMENT_SET_NO":999,"REV_AT_EPOCH":35400,"BSTAR":8.1215559e-5,"MEAN_MOTION_DOT":1.19e-6,"MEAN_MOTION_DDOT":0},{"OBJECT_NAME":"SECOR 13 (EGRS 13)","OBJECT_ID":"1969-037B","EPOCH":"2026-04-27T09:12:32.645088","MEAN_MOTION":13.42974978,"ECCENTRICITY":0.0039777,"INCLINATION":99.6564,"RA_OF_ASC_NODE":351.0592,"ARG_OF_PERICENTER":17.2622,"MEAN_ANOMALY":156.4062,"EPHEMERIS_TYPE":0,"CLASSIFICATION_TYPE":"U","NORAD_CAT_ID":3891,"ELEMENT_SET_NO":999,"REV_AT_EPOCH":79493,"BSTAR":3.6754e-5,"MEAN_MOTION_DOT":-2.1e-7,"MEAN_MOTION_DDOT":0},{"OBJECT_NAME":"ATS 5","OBJECT_ID":"1969-069A","EPOCH":"2026-04-27T11:33:55.016064","MEAN_MOTION":0.99489829,"ECCENTRICITY":0.0005595,"INCLINATION":0.2326,"RA_OF_ASC_NODE":183.9041,"ARG_OF_PERICENTER":98.7014,"MEAN_ANOMALY":30.1608,"EPHEMERIS_TYPE":0,"CLASSIFICATION_TYPE":"U","NORAD_CAT_ID":4068,"ELEMENT_SET_NO":999,"REV_AT_EPOCH":4582,"BSTAR":0,"MEAN_MOTION_DOT":-1.57e-6,"MEAN_MOTION_DDOT":0},{"OBJECT_NAME":"OPS 7613 (P/L 4)","OBJECT_ID":"1969-082E","EPOCH":"2026-04-27T10:34:21.702144","MEAN_MOTION":13.95987818,"ECCENTRICITY":0.002151,"INCLINATION":70.0154,"RA_OF_ASC_NODE":212.2958,"ARG_OF_PERICENTER":203.1668,"MEAN_ANOMALY":230.7072,"EPHEMERIS_TYPE":0,"CLASSIFICATION_TYPE":"U","NORAD_CAT_ID":4237,"ELEMENT_SET_NO":999,"REV_AT_EPOCH":87922,"BSTAR":4.969e-5,"MEAN_MOTION_DOT":1.5e-7,"MEAN_MOTION_DDOT":0},{"OBJECT_NAME":"OPS 7613 (P/L 1)","OBJECT_ID":"1969-082B","EPOCH":"2026-04-27T08:04:44.779296","MEAN_MOTION":13.99182676,"ECCENTRICITY":0.001762,"INCLINATION":70.009,"RA_OF_ASC_NODE":74.2517,"ARG_OF_PERICENTER":138.1364,"MEAN_ANOMALY":222.1094,"EPHEMERIS_TYPE":0,"CLASSIFICATION_TYPE":"U","NORAD_CAT_ID":4256,"ELEMENT_SET_NO":999,"REV_AT_EPOCH":88335,"BSTAR":0.00010372,"MEAN_MOTION_DOT":9.7e-7,"MEAN_MOTION_DDOT":0},{"OBJECT_NAME":"SHINSEI (MS-F2)","OBJECT_ID":"1971-080A","EPOCH":"2026-04-27T05:35:37.525344","MEAN_MOTION":12.74248834,"ECCENTRICITY":0.0639237,"INCLINATION":32.0549,"RA_OF_ASC_NODE":323.6095,"ARG_OF_PERICENTER":62.1442,"MEAN_ANOMALY":304.2424,"EPHEMERIS_TYPE":0,"CLASSIFICATION_TYPE":"U","NORAD_CAT_ID":5485,"ELEMENT_SET_NO":999,"REV_AT_EPOCH":54275,"BSTAR":6.5198e-5,"MEAN_MOTION_DOT":4.5e-7,"MEAN_MOTION_DDOT":0},{"OBJECT_NAME":"PROSPERO (BLACK ARROW)","OBJECT_ID":"1971-093A","EPOCH":"2026-04-27T07:52:15.368160","MEAN_MOTION":14.01529135,"ECCENTRICITY":0.0501992,"INCLINATION":82.0388,"RA_OF_ASC_NODE":335.4827,"ARG_OF_PERICENTER":13.1133,"MEAN_ANOMALY":348.2537,"EPHEMERIS_TYPE":0,"CLASSIFICATION_TYPE":"U","NORAD_CAT_ID":5580,"ELEMENT_SET_NO":999,"REV_AT_EPOCH":74140,"BSTAR":0.00024757,"MEAN_MOTION_DOT":1.174e-5,"MEAN_MOTION_DDOT":0},{"OBJECT_NAME":"OPS 7898 (P/L 2)","OBJECT_ID":"1971-110C","EPOCH":"2026-04-27T09:14:07.239264","MEAN_MOTION":13.74754473,"ECCENTRICITY":0.0010228,"INCLINATION":69.9872,"RA_OF_ASC_NODE":107.7612,"ARG_OF_PERICENTER":242.0025,"MEAN_ANOMALY":118.0035,"EPHEMERIS_TYPE":0,"CLASSIFICATION_TYPE":"U","NORAD_CAT_ID":5680,"ELEMENT_SET_NO":999,"REV_AT_EPOCH":34123,"BSTAR":5.8106e-5,"MEAN_MOTION_DOT":5.0e-8,"MEAN_MOTION_DDOT":0}]
