OPS 6582 (TRANSIT 5B-5) 
1 00965U 64083D   26117.50078198  .00000049  00000+0  55424-4 0  9992
2 00965  90.0796 202.6263 0043414  67.5145 303.9551 13.57007825 36742
LES-1                   
1 01002U 65008C   26117.29418362  .00000011  00000+0  40675-3 0  9990
2 01002  32.1385 165.2741 0015341  86.8365 273.3887  9.88355197211156
SOLRAD 7B               
1 01291U 65016D   26117.34442174  .00000040  00000+0  68534-4 0  9990
2 01291  70.0805 344.3579 0021664 194.6655 165.3825 13.94969531109612
SECOR 4 (EGRS 4)        
1 01315U 65027B   26117.50310389  .00000074  00000+0  24560-3 0  9996
2 01315  90.2550  14.4222 0030441 335.8289 196.9044 12.92666914880373
TIROS 10                
1 01430U 65051A   26117.30676336  .00000194  00000+0  72362-4 0  9993
2 01430  98.4964 236.8791 0054384 230.9776 128.6564 14.41609610188588
ALOUETTE 2              
1 01804U 65098A   26117.01571300  .00000320  00000+0  10481-3 0  9996
2 01804  79.7988 320.2144 1330563 336.3271  18.1601 12.28312971672991
OV3-3                   
1 02389U 66070A   26117.46704473  .00009115  00000+0  41522-3 0  9995
2 02389  81.3314  15.7326 1014928 289.2529  60.1614 13.44362590592157
SECOR 7 (EGRS 7)        
1 02411U 66077B   26116.89758777  .00000021  00000+0  97228-2 0  9990
2 02411  90.3284 276.8425 0011851 107.8184 252.3961  8.59615519872975
ERS 15                  
1 02412U 66077C   26116.39939321  .00000002  00000+0  00000+0 0  9990
2 02412  90.3282 276.6294 0007371 116.4660 243.6948  8.59079422386013
ISIS 1                  
1 03669U 69009A   26117.12759773  .00000119  00000+0  81216-4 0  9998
2 03669  88.4443 150.0111 1706954 351.4221   6.0735 11.30424602354002
SECOR 13 (EGRS 13)      
1 03891U 69037B   26117.38371117 -.00000021  00000+0  36754-4 0  9996
2 03891  99.6564 351.0592 0039777  17.2622 156.4062 13.42974978794930
ATS 5                   
1 04068U 69069A   26117.48188676 -.00000157  00000+0  00000+0 0  9995
2 04068   0.2326 183.9041 0005595  98.7014  30.1608  0.99489829 45827
OPS 7613 (P/L 4)        
1 04237U 69082E   26117.44052896  .00000015  00000+0  49690-4 0  9993
2 04237  70.0154 212.2958 0021510 203.1668 230.7072 13.95987818879227
OPS 7613 (P/L 1)        
1 04256U 69082B   26117.33662939  .00000097  00000+0  10372-3 0  9991
2 04256  70.0090  74.2517 0017620 138.1364 222.1094 13.99182676883352
SHINSEI (MS-F2)         
1 05485U 71080A   26117.23307321  .00000045  00000+0  65198-4 0  9997
2 05485  32.0549 323.6095 0639237  62.1442 304.2424 12.74248834542759
PROSPERO (BLACK ARROW)  
1 05580U 71093A   26117.32795565  .00001174  00000+0  24757-3 0  9997
2 05580  82.0388 335.4827 0501992  13.1133 348.2537 14.01529135741408
OPS 7898 (P/L 2)        
1 05680U 71110C   26117.38480601  .00000005  00000+0  58106-4 0  9994
2 05680  69.9872 107.7612 0010228 242.0025 118.0035 13.74754473341230
